NORAD_CAT_ID,OBJECT_NAME,OBJECT_TYPE,EPOCH,MEAN_MOTION,ECCENTRICITY,INCLINATION,RA_OF_ASC_NODE,ARG_OF_PERICENTER,MEAN_ANOMALY,BSTAR,MEAN_MOTION_DOT,MEAN_MOTION_DDOT,TLE_LINE0,TLE_LINE1,TLE_LINE2,SEMIMAJOR_AXIS,PERIOD,APOGEE,PERIGEE,DECAYED
53434.0,STARLINK-4498,PAYLOAD,2023-04-18 20:41:31,15.08834087,3.94e-05,53.2143,163.6376,135.6906,224.4118,-3.337e-05,-8.18e-06,0.0,0 STARLINK-4498,1 53434U 22097AY  23108.86216812 -.00000818  00000-0 -33370-4 0  9996,2 53434  53.2143 163.6376 0000394 135.6906 224.4118 15.08834087 38914,6917.898,95.438,540.036,539.491,0.0
53434.0,STARLINK-4498,PAYLOAD,2023-04-19 09:24:36,15.08843053,0.0001014,53.2144,161.2586,93.1092,267.0016,0.00035752,5.407e-05,0.0,0 STARLINK-4498,1 53434U 22097AY  23109.39209070  .00005407  00000-0  35752-3 0  9995,2 53434  53.2144 161.2586 0001014  93.1092 267.0016 15.08843053 39482,6917.871,95.437,540.438,539.035,0.0
53434.0,STARLINK-4498,PAYLOAD,2023-04-19 20:32:18,15.08844007,0.0001187,53.2143,159.176,85.9096,274.2032,0.00041166,6.27e-05,0.0,0 STARLINK-4498,1 53434U 22097AY  23109.85577123  .00006270  00000-0  41166-3 0  9998,2 53434  53.2143 159.1760 0001187  85.9096 274.2032 15.08844007 39551,6917.868,95.437,540.554,538.912,0.0
53434.0,STARLINK-4498,PAYLOAD,2023-04-20 12:26:10,15.08840212,0.0001525,53.2136,156.2012,86.4578,273.6589,0.00025574,3.784e-05,0.0,0 STARLINK-4498,1 53434U 22097AY  23110.51817525  .00003784  00000-0  25574-3 0  9998,2 53434  53.2136 156.2012 0001525  86.4578 273.6589 15.08840212 39653,6917.88,95.438,540.8,538.69,0.0
53434.0,STARLINK-4498,PAYLOAD,2023-04-20 20:23:06,15.08835707,0.0001643,53.2136,154.7147,86.0474,274.0706,0.00013309,1.83e-05,0.0,0 STARLINK-4498,1 53434U 22097AY  23110.84937798  .00001830  00000-0  13309-3 0  9992,2 53434  53.2136 154.7147 0001643  86.0474 274.0706 15.08835707 39702,6917.894,95.438,540.895,538.622,0.0
53434.0,STARLINK-4498,PAYLOAD,2023-04-21 09:06:11,15.08837675,0.0001608,53.2128,152.3356,86.3562,273.7614,0.0001799,2.576e-05,0.0,0 STARLINK-4498,1 53434U 22097AY  23111.37929964  .00002576  00000-0  17990-3 0  9995,2 53434  53.2128 152.3356 0001608  86.3562 273.7614 15.08837675 39295,6917.887,95.438,540.865,538.64,0.0
53434.0,STARLINK-4498,PAYLOAD,2023-04-21 20:13:53,15.08840866,0.0001528,53.2141,150.2519,96.119,263.9976,0.00019022,2.741e-05,0.0,0 STARLINK-4498,1 53434U 22097AY  23111.84297933  .00002741  00000-0  19022-3 0  9993,2 53434  53.2141 150.2519 0001528  96.1190 263.9976 15.08840866 39855,6917.878,95.437,540.8,538.686,0.0
53434.0,STARLINK-4498,PAYLOAD,2023-04-22 02:35:25,15.08844091,0.000143,53.2143,149.0626,94.8894,265.2262,0.00033938,5.118e-05,0.0,0 STARLINK-4498,1 53434U 22097AY  23112.10793901  .00005118  00000-0  33938-3 0  9992,2 53434  53.2143 149.0626 0001430  94.8894 265.2262 15.08844091 39891,6917.868,95.437,540.722,538.744,0.0
53434.0,STARLINK-4498,PAYLOAD,2023-04-22 13:43:07,15.08854444,0.0001597,53.2137,146.9807,95.673,264.4444,0.00039693,6.037e-05,0.0,0 STARLINK-4498,1 53434U 22097AY  23112.57161321  .00006037  00000-0  39693-3 0  9993,2 53434  53.2137 146.9807 0001597  95.6730 264.4444 15.08854444 39473,6917.836,95.437,540.806,538.596,0.0
53434.0,STARLINK-4498,PAYLOAD,2023-04-23 11:58:31,15.0883529,0.0001577,53.2146,142.8183,93.7943,266.3229,-6.423e-05,-1.31e-05,0.0,0 STARLINK-4498,1 53434U 22097AY  23113.49897953 -.00001310  00000-0 -64230-4 0  9999,2 53434  53.2146 142.8183 0001577  93.7943 266.3229 15.08835290 40100,6917.895,95.438,540.851,538.669,0.0
53434.0,STARLINK-4498,PAYLOAD,2023-04-23 13:33:54,15.08841107,0.0001297,53.2146,142.5236,82.2772,277.8367,4.7399e-05,4.67e-06,0.0,0 STARLINK-4498,1 53434U 22097AY  23113.56521803  .00000467  00000-0  47399-4 0  9992,2 53434  53.2146 142.5236 0001297  82.2772 277.8367 15.08841107 39627,6917.877,95.437,540.639,538.845,0.0
53434.0,STARLINK-4498,PAYLOAD,2023-04-24 11:49:17,15.08867825,0.0001498,53.2158,138.3574,102.4178,257.6982,0.00038245,5.809e-05,0.0,0 STARLINK-4498,1 53434U 22097AY  23114.49256203  .00005809  00000-0  38245-3 0  9998,2 53434  53.2158 138.3574 0001498 102.4178 257.6982 15.08867825 39765,6917.795,95.436,540.697,538.624,0.0
53434.0,STARLINK-4498,PAYLOAD,2023-04-24 13:24:40,15.08873278,0.0001491,53.2159,138.0606,98.5936,261.5225,0.00066504,0.00010322,0.0,0 STARLINK-4498,1 53434U 22097AY  23114.55880239  .00010322  00000-0  66504-3 0  9992,2 53434  53.2159 138.0606 0001491  98.5936 261.5225 15.08873278 40269,6917.779,95.435,540.675,538.612,0.0
53434.0,STARLINK-4498,PAYLOAD,2023-04-25 11:40:05,15.08831644,0.000131,53.2149,133.8982,98.735,261.379,-0.00016059,-2.842e-05,0.0,0 STARLINK-4498,1 53434U 22097AY  23115.48617576 -.00002842  00000-0 -16059-3 0  9997,2 53434  53.2149 133.8982 0001310  98.7350 261.3790 15.08831644 40402,6917.906,95.438,540.677,538.865,0.0
53434.0,STARLINK-4498,PAYLOAD,2023-04-26 13:06:16,15.08834865,0.0001366,53.2145,129.1405,109.579,250.535,0.00034802,5.254e-05,0.0,0 STARLINK-4498,1 53434U 22097AY  23116.54602336  .00005254  00000-0  34802-3 0  9997,2 53434  53.2145 129.1405 0001366 109.5790 250.5350 15.08834865 40563,6917.896,95.438,540.706,538.816,0.0
53434.0,STARLINK-4498,PAYLOAD,2023-04-26 17:52:25,15.08837961,0.0001336,53.2145,128.2485,106.1258,253.9882,0.00038218,5.799e-05,0.0,0 STARLINK-4498,1 53434U 22097AY  23116.74474364  .00005799  00000-0  38218-3 0  9996,2 53434  53.2145 128.2485 0001336 106.1258 253.9882 15.08837961 40590,6917.887,95.438,540.676,538.827,0.0
53434.0,STARLINK-4498,PAYLOAD,2023-04-27 08:10:53,15.08846933,0.0001332,53.2148,125.5724,106.2201,253.8938,0.00045269,6.925e-05,0.0,0 STARLINK-4498,1 53434U 22097AY  23117.34090205  .00006925  00000-0  45269-3 0  9997,2 53434  53.2148 125.5724 0001332 106.2201 253.8938 15.08846933 40684,6917.859,95.437,540.646,538.803,0.0
53434.0,STARLINK-4498,PAYLOAD,2023-04-28 06:26:18,15.08840449,0.0001323,53.2152,121.4091,104.5039,255.6099,0.00013058,1.791e-05,0.0,0 STARLINK-4498,1 53434U 22097AY  23118.26826446  .00001791  00000-0  13058-3 0  9990,2 53434  53.2152 121.4091 0001323 104.5039 255.6099 15.08840449 40337,6917.879,95.438,540.659,538.829,0.0
53434.0,STARLINK-4498,PAYLOAD,2023-04-29 06:17:04,15.0884513,0.0001236,53.2146,116.9488,98.7189,261.3943,0.00019094,2.753e-05,0.0,0 STARLINK-4498,1 53434U 22097AY  23119.26186304  .00002753  00000-0  19094-3 0  9998,2 53434  53.2146 116.9488 0001236  98.7189 261.3943 15.08845130 40976,6917.865,95.437,540.585,538.875,0.0
53434.0,STARLINK-4498,PAYLOAD,2023-04-29 23:46:19,15.08839748,0.0001182,53.2143,113.6777,95.9897,264.123,0.0001666,2.365e-05,0.0,0 STARLINK-4498,1 53434U 22097AY  23119.99050614  .00002365  00000-0  16660-3 0  9997,2 53434  53.2143 113.6777 0001182  95.9897 264.1230 15.08839748 40599,6917.881,95.438,540.564,538.928,0.0
53434.0,STARLINK-4498,PAYLOAD,2023-04-30 09:18:38,15.0884163,0.0001205,53.2144,111.8929,97.6819,262.431,0.00011834,1.596e-05,0.0,0 STARLINK-4498,1 53434U 22097AY  23120.38794503  .00001596  00000-0  11834-3 0  9997,2 53434  53.2144 111.8929 0001205  97.6819 262.4310 15.08841630 41143,6917.875,95.437,540.574,538.907,0.0
53434.0,STARLINK-4498,PAYLOAD,2023-05-01 04:23:16,15.08841938,0.0001223,53.2143,108.3241,97.8117,262.3014,9.2262e-05,1.181e-05,0.0,0 STARLINK-4498,1 53434U 22097AY  23121.18282490  .00001181  00000-0  92262-4 0  9998,2 53434  53.2143 108.3241 0001223  97.8117 262.3014 15.08841938 40772,6917.874,95.437,540.586,538.893,0.0
53434.0,STARLINK-4498,PAYLOAD,2023-05-01 09:09:25,15.08843383,0.0001298,53.2146,107.4319,100.685,259.4289,0.00010169,1.331e-05,0.0,0 STARLINK-4498,1 53434U 22097AY  23121.38154375  .00001331  00000-0  10169-3 0  9992,2 53434  53.2146 107.4319 0001298 100.6850 259.4289 15.08843383 41295,6917.87,95.437,540.633,538.837,0.0
53434.0,STARLINK-4498,PAYLOAD,2023-05-02 05:49:26,15.08840802,0.0001312,53.2163,103.5651,97.3411,262.773,9.0424e-05,1.152e-05,0.0,0 STARLINK-4498,1 53434U 22097AY  23122.24266584  .00001152  00000-0  90424-4 0  9998,2 53434  53.2163 103.5651 0001312  97.3411 262.7730 15.08840802 40933,6917.878,95.438,540.651,538.835,0.0
53434.0,STARLINK-4498,PAYLOAD,2023-05-02 09:00:12,15.08841437,0.0001313,53.2167,102.9709,91.2367,268.8776,8.8772e-05,1.125e-05,0.0,0 STARLINK-4498,1 53434U 22097AY  23122.37514559  .00001125  00000-0  88772-4 0  9993,2 53434  53.2167 102.9709 0001313  91.2367 268.8776 15.08841437 41447,6917.876,95.437,540.649,538.833,0.0
53434.0,STARLINK-4498,PAYLOAD,2023-05-02 21:43:18,15.08835025,0.0001435,53.2169,100.5927,91.4541,268.6616,3.0046e-05,1.9e-06,0.0,0 STARLINK-4498,1 53434U 22097AY  23122.90507197  .00000190  00000-0  30046-4 0  9994,2 53434  53.2169 100.5927 0001435  91.4541 268.6616 15.08835025 41522,6917.896,95.438,540.753,538.768,0.0
53434.0,STARLINK-4498,PAYLOAD,2023-05-03 05:40:13,15.08834561,0.0001418,53.2172,99.1058,97.1091,263.0062,1.6118e-05,-3.1e-07,0.0,0 STARLINK-4498,1 53434U 22097AY  23123.23627304 -.00000031  00000-0  16118-4 0  9993,2 53434  53.2172  99.1058 0001418  97.1091 263.0062 15.08834561 41087,6917.897,95.438,540.743,538.781,0.0
53434.0,STARLINK-4498,PAYLOAD,2023-05-03 08:51:00,15.08836144,0.0001367,53.217,98.5111,92.4755,267.6394,2.3376e-05,8.4e-07,0.0,0 STARLINK-4498,1 53434U 22097AY  23123.36875210  .00000084  00000-0  23376-4 0  9999,2 53434  53.2170  98.5111 0001367  92.4755 267.6394 15.08836144 41599,6917.892,95.438,540.703,538.811,0.0
53434.0,STARLINK-4498,PAYLOAD,2023-05-03 21:34:05,15.08835824,0.0001333,53.2171,96.1325,91.5512,268.5633,5.2535e-05,5.48e-06,0.0,0 STARLINK-4498,1 53434U 22097AY  23123.89867242  .00000548  00000-0  52535-4 0  9997,2 53434  53.2171  96.1325 0001333  91.5512 268.5633 15.08835824 41674,6917.893,95.438,540.68,538.836,0.0
53434.0,STARLINK-4498,PAYLOAD,2023-05-04 07:06:23,15.0884219,0.0001293,53.2168,94.3483,90.6466,269.4674,6.9624e-05,8.2e-06,0.0,0 STARLINK-4498,1 53434U 22097AY  23124.29610816  .00000820  00000-0  69624-4 0  9995,2 53434  53.2168  94.3483 0001293  90.6466 269.4674 15.08842190 41240,6917.874,95.437,540.633,538.844,0.0
